[{"OBJECT_NAME":"STARLINK-32697","OBJECT_ID":"2024-251E","EPOCH":"2026-03-09T23:32:13.064064","MEAN_MOTION":15.30192066,"ECCENTRICITY":0.00010773,"INCLINATION":53.1595,"RA_OF_ASC_NODE":333.9073,"ARG_OF_PERICENTER":112.6856,"MEAN_ANOMALY":247.4259,"EPHEMERIS_TYPE":0,"CLASSIFICATION_TYPE":"U","NORAD_CAT_ID":62436,"ELEMENT_SET_NO":999,"REV_AT_EPOCH":6799,"BSTAR":0.00045008429,"MEAN_MOTION_DOT":0.00012991,"MEAN_MOTION_DDOT":0},{"OBJECT_NAME":"OBJECT A","OBJECT_ID":"2025-234A","EPOCH":"2026-03-09T23:03:34.210368","MEAN_MOTION":15.32505956,"ECCENTRICITY":0.00130678,"INCLINATION":97.4388,"RA_OF_ASC_NODE":139.352,"ARG_OF_PERICENTER":148.634,"MEAN_ANOMALY":211.5684,"EPHEMERIS_TYPE":0,"CLASSIFICATION_TYPE":"U","NORAD_CAT_ID":66053,"ELEMENT_SET_NO":999,"REV_AT_EPOCH":2164,"BSTAR":0.0014840662,"MEAN_MOTION_DOT":0.00046856,"MEAN_MOTION_DDOT":0}]
